H1 CPF 01  gfz 2021 07 15 00  6961 tandemx   
H2 1003001  6202 36605    2021 07 15 00 59 42 2021 07 20 00 00 42   120 1 1  0 0 0
H9
10 0 59413  42462.000000  0     681822.434   2527412.909   6361106.217
10 0 59413  42582.000000  0     783501.516   1652968.150   6630399.015
10 0 59413  42702.000000  0     855940.499    748155.210   6783172.071
10 0 59413  42822.000000  0     897489.069   -170709.573   6816757.395
10 0 59413  42942.000000  0     907322.365  -1087046.167   6730567.894
10 0 59413  43062.000000  0     885456.993  -1984310.053   6526107.847
10 0 59413  43182.000000  0     832747.582  -2846290.818   6206948.769
10 0 59413  43302.000000  0     750863.754  -3657407.203   5778670.472
10 0 59413  43422.000000  0     642247.935  -4402990.293   5248766.684
10 0 59413  43542.000000  0     510056.282  -5069551.783   4626520.399
10 0 59413  43662.000000  0     358082.520  -5645035.467   3922848.411
10 0 59413  43782.000000  0     190665.175  -6119045.932   3150113.453
10 0 59413  43902.000000  0      12580.851  -6483046.908   2321907.602
10 0 59413  44022.000000  0    -171074.209  -6730523.982   1452810.868
10 0 59413  44142.000000  0    -355011.034  -6857110.182    558131.060
10 0 59413  44262.000000  0    -533880.956  -6860669.738   -346374.703
10 0 59413  44382.000000  0    -702410.491  -6741334.354  -1244787.632
10 0 59413  44502.000000  0    -855534.136  -6501493.178  -2121316.052
10 0 59413  44622.000000  0    -988522.375  -6145738.822  -2960579.499
10 0 59413  44742.000000  0   -1097102.007  -5680770.370  -3747883.722
10 0 59413  44862.000000  0   -1177565.463  -5115255.090  -4469480.049
10 0 59413  44982.000000  0   -1226866.233  -4459653.662  -5112802.613
10 0 59413  45102.000000  0   -1242698.837  -3726015.454  -5666680.453
10 0 59413  45222.000000  0   -1223561.536  -2927748.303  -6121522.505
10 0 59413  45342.000000  0   -1168800.816  -2079367.414  -6469473.161
10 0 59413  45462.000000  0   -1078637.211  -1196228.921  -6704536.134
10 0 59413  45582.000000  0    -954172.582   -294253.811  -6822667.260
10 0 59413  45702.000000  0    -797378.301    610354.601  -6821836.238
10 0 59413  45822.000000  0    -611064.053   1501394.367  -6702056.838
10 0 59413  45942.000000  0    -398829.044   2362947.338  -6465386.662
10 0 59413  46062.000000  0    -164995.825   3179656.686  -6115896.768
10 0 59413  46182.000000  0      85473.846   3936997.709  -5659610.351
10 0 59413  46302.000000  0     347079.078   4621535.471  -5104408.417
10 0 59413  46422.000000  0     613893.694   5221166.107  -4459905.639
10 0 59413  46542.000000  0     879692.802   5725338.616  -3737294.801
10 0 59413  46662.000000  0    1138089.699   6125250.485  -2949161.107
10 0 59413  46782.000000  0    1382680.027   6414013.365  -2109269.346
10 0 59413  46902.000000  0    1607190.323   6586784.711  -1232325.846
10 0 59413  47022.000000  0    1805627.443   6640860.676   -333719.001
10 0 59413  47142.000000  0    1972424.617   6575726.248    570756.363
10 0 59413  47262.000000  0    2102579.891   6393061.633   1465183.665
10 0 59413  47382.000000  0    2191784.223   6096705.107   2333812.643
10 0 59413  47502.000000  0    2236535.598   5692572.566   3161344.649
10 0 59413  47622.000000  0    2234236.658   5188536.578   3933209.682
10 0 59413  47742.000000  0    2183272.083   4594266.688   4635829.390
10 0 59413  47862.000000  0    2083064.465   3921033.464   5256860.067
10 0 59413  47982.000000  0    1934106.985   3181483.723   5785406.286
10 0 59413  48102.000000  0    1737974.552   2389396.742   6212207.663
10 0 59413  48222.000000  0    1497311.639   1559421.634   6529797.019
10 0 59413  48342.000000  0    1215797.144    706801.291   6732624.832
10 0 59413  48462.000000  0     898087.653   -152908.942   6817149.080
10 0 59413  48582.000000  0     549740.264  -1004123.622   6781894.212
10 0 59413  48702.000000  0     177115.136  -1831510.152   6627476.356
10 0 59413  48822.000000  0    -212740.837  -2620264.898   6356593.016
10 0 59413  48942.000000  0    -612226.790  -3356379.262   5973977.935
10 0 59413  49062.000000  0   -1013333.572  -4026889.094   5486321.024
10 0 59413  49182.000000  0   -1407801.225  -4620105.103   4902158.658
10 0 59413  49302.000000  0   -1787287.980  -5125823.719   4231732.817
10 0 59413  49422.000000  0   -2143545.914  -5535512.688   3486816.262
10 0 59413  49542.000000  0   -2468599.067  -5842464.163   2680506.444
10 0 59413  49662.000000  0   -2754919.476  -6041911.478   1826993.835
10 0 59413  49782.000000  0   -2995597.114  -6131108.828    941308.515
10 0 59413  49902.000000  0   -3184499.635  -6109370.980     39049.151
10 0 59413  50022.000000  0   -3316417.724  -5978071.574   -863899.778
10 0 59413  50142.000000  0   -3387192.435  -5740599.697  -1751656.765
10 0 59413  50262.000000  0   -3393821.189  -5402275.416  -2608631.083
10 0 59413  50382.000000  0   -3334539.797  -4970226.997  -3419803.264
10 0 59413  50502.000000  0   -3208877.947  -4453233.135  -4170991.593
10 0 59413  50622.000000  0   -3017687.687  -3861536.061  -4849098.672
10 0 59413  50742.000000  0   -2763145.412  -3206630.770  -5442334.839
10 0 59413  50862.000000  0   -2448727.945  -2501035.114  -5940415.066
10 0 59413  50982.000000  0   -2079163.150  -1758046.425  -6334727.389
10 0 59413  51102.000000  0   -1660355.646   -991489.102  -6618470.917
10 0 59413  51222.000000  0   -1199290.626   -215458.526  -6786761.121
10 0 59413  51342.000000  0    -703918.230    555933.506  -6836703.755
10 0 59413  51462.000000  0    -183018.643   1308808.678  -6767439.315
10 0 59413  51582.000000  0     353949.355   2029765.151  -6580155.839
10 0 59413  51702.000000  0     897014.837   2706110.400  -6278072.825
10 0 59413  51822.000000  0    1435876.522   3326082.000  -5866392.604
10 0 59413  51942.000000  0    1960093.692   3879051.459  -5352219.080
10 0 59413  52062.000000  0    2459285.345   4355708.095  -4744446.548
10 0 59413  52182.000000  0    2923334.182   4748221.419  -4053617.438
10 0 59413  52302.000000  0    3342591.147   5050377.680  -3291749.081
10 0 59413  52422.000000  0    3708077.107   5257687.114  -2472132.491
10 0 59413  52542.000000  0    4011676.993   5367458.635  -1609104.009
10 0 59413  52662.000000  0    4246320.350   5378839.875   -717794.920
10 0 59413  52782.000000  0    4406144.385   5292821.398    186137.736
10 0 59413  52902.000000  0    4486634.920   5112202.417   1086793.016
10 0 59413  53022.000000  0    4484739.774   4841519.765   1968313.074
10 0 59413  53142.000000  0    4398955.107   4486944.452   2815170.219
10 0 59413  53262.000000  0    4229379.486   4056143.262   3612450.838
10 0 59413  53382.000000  0    3977733.204   3558111.015   4346123.978
10 0 59413  53502.000000  0    3647346.381   3002978.860   5003290.653
10 0 59413  53622.000000  0    3243114.274   2401803.939   5572413.601
10 0 59413  53742.000000  0    2771418.440   1766343.136   6043516.096
10 0 59413  53862.000000  0    2240022.160   1108819.659   6408351.295
10 0 59413  53982.000000  0    1657938.697    441685.015   6660540.263
10 0 59413  54102.000000  0    1035275.417   -222616.234   6795677.356
10 0 59413  54222.000000  0     383056.726   -871877.912   6811403.997
10 0 59413  54342.000000  0    -286971.771  -1494356.971   6707447.098
10 0 59413  54462.000000  0    -962554.909  -2078985.630   6485622.926
10 0 59413  54582.000000  0   -1631151.416  -2615568.196   6149805.782
10 0 59413  54702.000000  0   -2280164.149  -3094958.796   5705864.341
10 0 59413  54822.000000  0   -2897177.283  -3509220.166   5161567.286
10 0 59413  54942.000000  0   -3470198.006  -3851759.919   4526454.060
10 0 59413  55062.000000  0   -3987894.089  -4117439.412   3811671.229
10 0 59413  55182.000000  0   -4439821.781  -4302654.262   3029779.479
10 0 59413  55302.000000  0   -4816640.729  -4405385.114   2194534.309
10 0 59413  55422.000000  0   -5110311.770  -4425217.221   1320641.672
10 0 59413  55542.000000  0   -5314270.779  -4363326.296    423493.403
10 0 59413  55662.000000  0   -5423574.656  -4222431.896   -481111.291
10 0 59413  55782.000000  0   -5435015.538  -4006719.327  -1377253.122
10 0 59413  55902.000000  0   -5347199.436  -3721731.176  -2249182.887
10 0 59413  56022.000000  0   -5160586.627  -3374231.396  -3081605.577
10 0 59413  56142.000000  0   -4877494.928  -2972047.542  -3859952.471
10 0 59413  56262.000000  0   -4502066.746  -2523894.758  -4570636.579
10 0 59413  56382.000000  0   -4040200.444  -2039186.139  -5201286.951
10 0 59413  56502.000000  0   -3499448.594  -1527834.331  -5740957.479
10 0 59413  56622.000000  0   -2888886.374  -1000048.506  -6180307.480
10 0 59413  56742.000000  0   -2218953.243   -466131.557  -6511752.266
10 0 59413  56862.000000  0   -1501270.455     63718.284  -6729582.430
10 0 59413  56982.000000  0    -748439.516    579597.504  -6830050.461
10 0 59413  57102.000000  0      26174.820   1072077.278  -6811428.196
10 0 59413  57222.000000  0     808675.576   1532371.058  -6674032.923
10 0 59413  57342.000000  0    1584876.389   1952487.190  -6420225.131
10 0 59413  57462.000000  0    2340553.759   2325366.124  -6054372.436
10 0 59413  57582.000000  0    3061703.622   2644998.514  -5582782.283
10 0 59413  57702.000000  0    3734797.564   2906522.493  -5013602.828
10 0 59413  57822.000000  0    4347037.173   3106299.939  -4356694.889
10 0 59413  57942.000000  0    4886601.878   3241969.459  -3623471.698
10 0 59413  58062.000000  0    5342883.239   3312473.769  -2826708.515
10 0 59413  58182.000000  0    5706700.948   3318062.284  -1980326.377
10 0 59413  58302.000000  0    5970496.742   3260267.148  -1099150.275
10 0 59413  58422.000000  0    6128498.504   3141851.886   -198647.362
10 0 59413  58542.000000  0    6176851.487   2966734.543    705349.750
10 0 59413  58662.000000  0    6113712.033   2739885.722   1596928.772
10 0 59413  58782.000000  0    5939300.829   2467206.893   2460386.046
10 0 59413  58902.000000  0    5655915.275   2155389.488   3280512.451
99
